{
  "type": "FeatureCollection",
  "name": "Pelon",
  "features": [
    {
      "type": "Feature",
      "properties": {
        "nombre": "Pelon",
        "creado_en": "2026-09-09T23:40:54"
      },
      "geometry": {
        "type": "Polygon",
        "coordinates": [
          [
            [
              -85.451016,
              10.451857
            ],
            [
              -85.454278,
              10.457892
            ],
            [
              -85.455265,
              10.461563
            ],
            [
              -85.467324,
              10.477895
            ],
            [
              -85.467796,
              10.485069
            ],
            [
              -85.469728,
              10.491905
            ],
            [
              -85.470285,
              10.498488
            ],
            [
              -85.469341,
              10.501188
            ],
            [
              -85.465093,
              10.504902
            ],
            [
              -85.460844,
              10.506168
            ],
            [
              -85.459042,
              10.502454
            ],
            [
              -85.465007,
              10.497517
            ],
            [
              -85.463762,
              10.493635
            ],
            [
              -85.464664,
              10.491525
            ],
            [
              -85.463848,
              10.490555
            ],
            [
              -85.461359,
              10.492327
            ],
            [
              -85.456252,
              10.491905
            ],
            [
              -85.453677,
              10.490217
            ],
            [
              -85.452776,
              10.488234
            ],
            [
              -85.452132,
              10.486208
            ],
            [
              -85.453634,
              10.483423
            ],
            [
              -85.45608,
              10.482579
            ],
            [
              -85.45578,
              10.480807
            ],
            [
              -85.453291,
              10.481229
            ],
            [
              -85.451617,
              10.480933
            ],
            [
              -85.450759,
              10.480554
            ],
            [
              -85.448742,
              10.481609
            ],
            [
              -85.445008,
              10.486968
            ],
            [
              -85.444064,
              10.491694
            ],
            [
              -85.442004,
              10.493973
            ],
            [
              -85.44179,
              10.496167
            ],
            [
              -85.439515,
              10.498657
            ],
            [
              -85.437498,
              10.498361
            ],
            [
              -85.43355,
              10.496631
            ],
            [
              -85.430074,
              10.496251
            ],
            [
              -85.427928,
              10.4968
            ],
            [
              -85.424023,
              10.494775
            ],
            [
              -85.422864,
              10.493804
            ],
            [
              -85.421104,
              10.494479
            ],
            [
              -85.419044,
              10.494057
            ],
            [
              -85.417929,
              10.492918
            ],
            [
              -85.415912,
              10.490217
            ],
            [
              -85.415268,
              10.488656
            ],
            [
              -85.413079,
              10.483423
            ],
            [
              -85.411534,
              10.483887
            ],
            [
              -85.407844,
              10.48644
            ],
            [
              -85.406363,
              10.485913
            ],
            [
              -85.406556,
              10.484183
            ],
            [
              -85.407672,
              10.483381
            ],
            [
              -85.408509,
              10.48355
            ],
            [
              -85.409474,
              10.48201
            ],
            [
              -85.410569,
              10.481271
            ],
            [
              -85.409625,
              10.480701
            ],
            [
              -85.408058,
              10.480638
            ],
            [
              -85.403938,
              10.479689
            ],
            [
              -85.402801,
              10.480617
            ],
            [
              -85.400419,
              10.48144
            ],
            [
              -85.399239,
              10.483655
            ],
            [
              -85.398188,
              10.486483
            ],
            [
              -85.389626,
              10.488529
            ],
            [
              -85.388725,
              10.480005
            ],
            [
              -85.38866,
              10.475321
            ],
            [
              -85.39072,
              10.47108
            ],
            [
              -85.392008,
              10.466079
            ],
            [
              -85.395226,
              10.455212
            ],
            [
              -85.397329,
              10.447826
            ],
            [
              -85.399153,
              10.441728
            ],
            [
              -85.400913,
              10.434764
            ],
            [
              -85.396686,
              10.432801
            ],
            [
              -85.392094,
              10.43086
            ],
            [
              -85.389841,
              10.425964
            ],
            [
              -85.389476,
              10.424487
            ],
            [
              -85.390613,
              10.423643
            ],
            [
              -85.391471,
              10.422841
            ],
            [
              -85.391235,
              10.409651
            ],
            [
              -85.386558,
              10.409819
            ],
            [
              -85.386214,
              10.405134
            ],
            [
              -85.381408,
              10.405641
            ],
            [
              -85.380893,
              10.401356
            ],
            [
              -85.38306,
              10.400744
            ],
            [
              -85.383489,
              10.400048
            ],
            [
              -85.383232,
              10.397959
            ],
            [
              -85.384337,
              10.396713
            ],
            [
              -85.386751,
              10.397832
            ],
            [
              -85.388843,
              10.397916
            ],
            [
              -85.389401,
              10.397167
            ],
            [
              -85.391225,
              10.397695
            ],
            [
              -85.391879,
              10.397526
            ],
            [
              -85.392512,
              10.39627
            ],
            [
              -85.393853,
              10.395964
            ],
            [
              -85.39484,
              10.395151
            ],
            [
              -85.398574,
              10.401082
            ],
            [
              -85.400076,
              10.400217
            ],
            [
              -85.401664,
              10.423368
            ],
            [
              -85.401664,
              10.425753
            ],
            [
              -85.403616,
              10.428117
            ],
            [
              -85.406234,
              10.430206
            ],
            [
              -85.410268,
              10.43029
            ],
            [
              -85.412521,
              10.429467
            ],
            [
              -85.41441,
              10.430311
            ],
            [
              -85.417242,
              10.432295
            ],
            [
              -85.42016,
              10.432527
            ],
            [
              -85.424666,
              10.433434
            ],
            [
              -85.428507,
              10.434637
            ],
            [
              -85.43046,
              10.437697
            ],
            [
              -85.43164,
              10.439892
            ],
            [
              -85.433958,
              10.440673
            ],
            [
              -85.436318,
              10.441897
            ],
            [
              -85.437562,
              10.443901
            ],
            [
              -85.438936,
              10.444598
            ],
            [
              -85.440996,
              10.444978
            ],
            [
              -85.442863,
              10.445336
            ],
            [
              -85.444708,
              10.447193
            ],
            [
              -85.448956,
              10.448396
            ],
            [
              -85.45018,
              10.449641
            ],
            [
              -85.451016,
              10.451857
            ]
          ]
        ]
      }
    }
  ]
}