{"type": "FeatureCollection", "features": [{"id": "0", "type": "Feature", "properties": {"ID_Punto": 1, "zona_id": 1, "subzona_id": 1, "texture_id": 8, "Textura": "Franco-arcillosa (Clay loam)", "area_zona_ha": 2.7358, "area_subzona_ha": 2.7358, "puntos_zona": 1, "metodo_punto": "aleatorio_en_unidad", "Lat": 10.460600511239607, "Lon": -85.45394289869131}, "geometry": {"type": "Point", "coordinates": [-85.45394289869131, 10.460600511239607]}}, {"id": "1", "type": "Feature", "properties": {"ID_Punto": 2, "zona_id": 2, "subzona_id": 1, "texture_id": 8, "Textura": "Franco-arcillosa (Clay loam)", "area_zona_ha": 352.0981, "area_subzona_ha": 85.0, "puntos_zona": 5, "metodo_punto": "aleatorio_en_unidad", "Lat": 10.478402960092078, "Lon": -85.46311678838093}, "geometry": {"type": "Point", "coordinates": [-85.46311678838093, 10.478402960092078]}}, {"id": "2", "type": "Feature", "properties": {"ID_Punto": 3, "zona_id": 2, "subzona_id": 2, "texture_id": 8, "Textura": "Franco-arcillosa (Clay loam)", "area_zona_ha": 352.0981, "area_subzona_ha": 85.0, "puntos_zona": 5, "metodo_punto": "aleatorio_en_unidad", "Lat": 10.475081270334211, "Lon": -85.46059471359987}, "geometry": {"type": "Point", "coordinates": [-85.46059471359987, 10.475081270334211]}}, {"id": "3", "type": "Feature", "properties": {"ID_Punto": 4, "zona_id": 2, "subzona_id": 3, "texture_id": 8, "Textura": "Franco-arcillosa (Clay loam)", "area_zona_ha": 352.0981, "area_subzona_ha": 85.0, "puntos_zona": 5, "metodo_punto": "aleatorio_en_unidad", "Lat": 10.471236687060491, "Lon": -85.45594088363548}, "geometry": {"type": "Point", "coordinates": [-85.45594088363548, 10.471236687060491]}}, {"id": "4", "type": "Feature", "properties": {"ID_Punto": 5, "zona_id": 2, "subzona_id": 4, "texture_id": 8, "Textura": "Franco-arcillosa (Clay loam)", "area_zona_ha": 352.0981, "area_subzona_ha": 85.0, "puntos_zona": 5, "metodo_punto": "aleatorio_en_unidad", "Lat": 10.470712089666925, "Lon": -85.45336801718443}, "geometry": {"type": "Point", "coordinates": [-85.45336801718443, 10.470712089666925]}}, {"id": "5", "type": "Feature", "properties": {"ID_Punto": 6, "zona_id": 2, "subzona_id": 5, "texture_id": 8, "Textura": "Franco-arcillosa (Clay loam)", "area_zona_ha": 352.0981, "area_subzona_ha": 12.0981, "puntos_zona": 5, "metodo_punto": "aleatorio_en_unidad", "Lat": 10.479421487776355, "Lon": -85.44858656556549}, "geometry": {"type": "Point", "coordinates": [-85.44858656556549, 10.479421487776355]}}, {"id": "6", "type": "Feature", "properties": {"ID_Punto": 7, "zona_id": 3, "subzona_id": 1, "texture_id": 8, "Textura": "Franco-arcillosa (Clay loam)", "area_zona_ha": 6.2884, "area_subzona_ha": 6.2884, "puntos_zona": 1, "metodo_punto": "aleatorio_en_unidad", "Lat": 10.475087310400937, "Lon": -85.4368088404021}, "geometry": {"type": "Point", "coordinates": [-85.4368088404021, 10.475087310400937]}}, {"id": "7", "type": "Feature", "properties": {"ID_Punto": 8, "zona_id": 4, "subzona_id": 1, "texture_id": 8, "Textura": "Franco-arcillosa (Clay loam)", "area_zona_ha": 0.4588, "area_subzona_ha": 0.4588, "puntos_zona": 1, "metodo_punto": "aleatorio_en_unidad", "Lat": 10.486197979427605, "Lon": -85.45232105081483}, "geometry": {"type": "Point", "coordinates": [-85.45232105081483, 10.486197979427605]}}, {"id": "8", "type": "Feature", "properties": {"ID_Punto": 9, "zona_id": 5, "subzona_id": 1, "texture_id": 8, "Textura": "Franco-arcillosa (Clay loam)", "area_zona_ha": 24.5897, "area_subzona_ha": 24.5897, "puntos_zona": 1, "metodo_punto": "aleatorio_en_unidad", "Lat": 10.497160751850277, "Lon": -85.46563660668332}, "geometry": {"type": "Point", "coordinates": [-85.46563660668332, 10.497160751850277]}}, {"id": "9", "type": "Feature", "properties": {"ID_Punto": 10, "zona_id": 6, "subzona_id": 1, "texture_id": 8, "Textura": "Franco-arcillosa (Clay loam)", "area_zona_ha": 0.0941, "area_subzona_ha": 0.0941, "puntos_zona": 1, "metodo_punto": "aleatorio_en_unidad", "Lat": 10.49727720172506, "Lon": -85.44065166855229}, "geometry": {"type": "Point", "coordinates": [-85.44065166855229, 10.49727720172506]}}, {"id": "10", "type": "Feature", "properties": {"ID_Punto": 11, "zona_id": 7, "subzona_id": 1, "texture_id": 8, "Textura": "Franco-arcillosa (Clay loam)", "area_zona_ha": 2.854, "area_subzona_ha": 2.854, "puntos_zona": 1, "metodo_punto": "aleatorio_en_unidad", "Lat": 10.497442083962463, "Lon": -85.43780987862156}, "geometry": {"type": "Point", "coordinates": [-85.43780987862156, 10.497442083962463]}}, {"id": "11", "type": "Feature", "properties": {"ID_Punto": 12, "zona_id": 8, "subzona_id": 1, "texture_id": 8, "Textura": "Franco-arcillosa (Clay loam)", "area_zona_ha": 5.3503, "area_subzona_ha": 5.3503, "puntos_zona": 1, "metodo_punto": "aleatorio_en_unidad", "Lat": 10.503200960333837, "Lon": -85.46685158624862}, "geometry": {"type": "Point", "coordinates": [-85.46685158624862, 10.503200960333837]}}, {"id": "12", "type": "Feature", "properties": {"ID_Punto": 13, "zona_id": 9, "subzona_id": 1, "texture_id": 8, "Textura": "Franco-arcillosa (Clay loam)", "area_zona_ha": 1.4177, "area_subzona_ha": 1.4177, "puntos_zona": 1, "metodo_punto": "aleatorio_en_unidad", "Lat": 10.505832051037173, "Lon": -85.46074333025263}, "geometry": {"type": "Point", "coordinates": [-85.46074333025263, 10.505832051037173]}}, {"id": "13", "type": "Feature", "properties": {"ID_Punto": 14, "zona_id": 10, "subzona_id": 1, "texture_id": 8, "Textura": "Franco-arcillosa (Clay loam)", "area_zona_ha": 0.0087, "area_subzona_ha": 0.0087, "puntos_zona": 1, "metodo_punto": "aleatorio_en_unidad", "Lat": 10.397388529963361, "Lon": -85.3857393221928}, "geometry": {"type": "Point", "coordinates": [-85.3857393221928, 10.397388529963361]}}, {"id": "14", "type": "Feature", "properties": {"ID_Punto": 15, "zona_id": 11, "subzona_id": 1, "texture_id": 8, "Textura": "Franco-arcillosa (Clay loam)", "area_zona_ha": 12.5772, "area_subzona_ha": 12.5772, "puntos_zona": 1, "metodo_punto": "aleatorio_en_unidad", "Lat": 10.402622322098841, "Lon": -85.39602373314165}, "geometry": {"type": "Point", "coordinates": [-85.39602373314165, 10.402622322098841]}}, {"id": "15", "type": "Feature", "properties": {"ID_Punto": 16, "zona_id": 12, "subzona_id": 1, "texture_id": 8, "Textura": "Franco-arcillosa (Clay loam)", "area_zona_ha": 6.2886, "area_subzona_ha": 6.2886, "puntos_zona": 1, "metodo_punto": "aleatorio_en_unidad", "Lat": 10.403826358713086, "Lon": -85.38866845614541}, "geometry": {"type": "Point", "coordinates": [-85.38866845614541, 10.403826358713086]}}, {"id": "16", "type": "Feature", "properties": {"ID_Punto": 17, "zona_id": 13, "subzona_id": 1, "texture_id": 8, "Textura": "Franco-arcillosa (Clay loam)", "area_zona_ha": 10.116, "area_subzona_ha": 10.116, "puntos_zona": 1, "metodo_punto": "aleatorio_en_unidad", "Lat": 10.404986450128753, "Lon": -85.400400429942}, "geometry": {"type": "Point", "coordinates": [-85.400400429942, 10.404986450128753]}}, {"id": "17", "type": "Feature", "properties": {"ID_Punto": 18, "zona_id": 14, "subzona_id": 1, "texture_id": 8, "Textura": "Franco-arcillosa (Clay loam)", "area_zona_ha": 0.0018, "area_subzona_ha": 0.0018, "puntos_zona": 1, "metodo_punto": "aleatorio_en_unidad", "Lat": 10.413236324474092, "Lon": -85.4009644149851}, "geometry": {"type": "Point", "coordinates": [-85.4009644149851, 10.413236324474092]}}, {"id": "18", "type": "Feature", "properties": {"ID_Punto": 19, "zona_id": 15, "subzona_id": 1, "texture_id": 8, "Textura": "Franco-arcillosa (Clay loam)", "area_zona_ha": 182.7046, "area_subzona_ha": 85.0, "puntos_zona": 3, "metodo_punto": "aleatorio_en_unidad", "Lat": 10.418855445810985, "Lon": -85.39235406216986}, "geometry": {"type": "Point", "coordinates": [-85.39235406216986, 10.418855445810985]}}, {"id": "19", "type": "Feature", "properties": {"ID_Punto": 20, "zona_id": 15, "subzona_id": 2, "texture_id": 8, "Textura": "Franco-arcillosa (Clay loam)", "area_zona_ha": 182.7046, "area_subzona_ha": 85.0, "puntos_zona": 3, "metodo_punto": "aleatorio_en_unidad", "Lat": 10.424418468354887, "Lon": -85.39137566971674}, "geometry": {"type": "Point", "coordinates": [-85.39137566971674, 10.424418468354887]}}, {"id": "20", "type": "Feature", "properties": {"ID_Punto": 21, "zona_id": 15, "subzona_id": 3, "texture_id": 8, "Textura": "Franco-arcillosa (Clay loam)", "area_zona_ha": 182.7046, "area_subzona_ha": 12.7046, "puntos_zona": 3, "metodo_punto": "aleatorio_en_unidad", "Lat": 10.428014574213147, "Lon": -85.39506107097867}, "geometry": {"type": "Point", "coordinates": [-85.39506107097867, 10.428014574213147]}}, {"id": "21", "type": "Feature", "properties": {"ID_Punto": 22, "zona_id": 16, "subzona_id": 1, "texture_id": 8, "Textura": "Franco-arcillosa (Clay loam)", "area_zona_ha": 2438.4428, "area_subzona_ha": 85.0, "puntos_zona": 29, "metodo_punto": "aleatorio_en_unidad", "Lat": 10.430092365601093, "Lon": -85.40368658807996}, "geometry": {"type": "Point", "coordinates": [-85.40368658807996, 10.430092365601093]}}, {"id": "22", "type": "Feature", "properties": {"ID_Punto": 23, "zona_id": 16, "subzona_id": 2, "texture_id": 8, "Textura": "Franco-arcillosa (Clay loam)", "area_zona_ha": 2438.4428, "area_subzona_ha": 85.0, "puntos_zona": 29, "metodo_punto": "aleatorio_en_unidad", "Lat": 10.433254627261373, "Lon": -85.42233930565233}, "geometry": {"type": "Point", "coordinates": [-85.42233930565233, 10.433254627261373]}}, {"id": "23", "type": "Feature", "properties": {"ID_Punto": 24, "zona_id": 16, "subzona_id": 3, "texture_id": 8, "Textura": "Franco-arcillosa (Clay loam)", "area_zona_ha": 2438.4428, "area_subzona_ha": 85.0, "puntos_zona": 29, "metodo_punto": "aleatorio_en_unidad", "Lat": 10.43714119702923, "Lon": -85.40793481426365}, "geometry": {"type": "Point", "coordinates": [-85.40793481426365, 10.43714119702923]}}, {"id": "24", "type": "Feature", "properties": {"ID_Punto": 25, "zona_id": 16, "subzona_id": 4, "texture_id": 8, "Textura": "Franco-arcillosa (Clay loam)", "area_zona_ha": 2438.4428, "area_subzona_ha": 85.0, "puntos_zona": 29, "metodo_punto": "aleatorio_en_unidad", "Lat": 10.442992023155433, "Lon": -85.40599962782451}, "geometry": {"type": "Point", "coordinates": [-85.40599962782451, 10.442992023155433]}}, {"id": "25", "type": "Feature", "properties": {"ID_Punto": 26, "zona_id": 16, "subzona_id": 5, "texture_id": 8, "Textura": "Franco-arcillosa (Clay loam)", "area_zona_ha": 2438.4428, "area_subzona_ha": 85.0, "puntos_zona": 29, "metodo_punto": "aleatorio_en_unidad", "Lat": 10.44566771683445, "Lon": -85.40789865688758}, "geometry": {"type": "Point", "coordinates": [-85.40789865688758, 10.44566771683445]}}, {"id": "26", "type": "Feature", "properties": {"ID_Punto": 27, "zona_id": 16, "subzona_id": 6, "texture_id": 8, "Textura": "Franco-arcillosa (Clay loam)", "area_zona_ha": 2438.4428, "area_subzona_ha": 85.0, "puntos_zona": 29, "metodo_punto": "aleatorio_en_unidad", "Lat": 10.449136013156846, "Lon": -85.40868372523329}, "geometry": {"type": "Point", "coordinates": [-85.40868372523329, 10.449136013156846]}}, {"id": "27", "type": "Feature", "properties": {"ID_Punto": 28, "zona_id": 16, "subzona_id": 7, "texture_id": 8, "Textura": "Franco-arcillosa (Clay loam)", "area_zona_ha": 2438.4428, "area_subzona_ha": 85.0, "puntos_zona": 29, "metodo_punto": "aleatorio_en_unidad", "Lat": 10.451262534187512, "Lon": -85.4072722037971}, "geometry": {"type": "Point", "coordinates": [-85.4072722037971, 10.451262534187512]}}, {"id": "28", "type": "Feature", "properties": {"ID_Punto": 29, "zona_id": 16, "subzona_id": 8, "texture_id": 8, "Textura": "Franco-arcillosa (Clay loam)", "area_zona_ha": 2438.4428, "area_subzona_ha": 85.0, "puntos_zona": 29, "metodo_punto": "aleatorio_en_unidad", "Lat": 10.453016893183209, "Lon": -85.41002706773833}, "geometry": {"type": "Point", "coordinates": [-85.41002706773833, 10.453016893183209]}}, {"id": "29", "type": "Feature", "properties": {"ID_Punto": 30, "zona_id": 16, "subzona_id": 9, "texture_id": 8, "Textura": "Franco-arcillosa (Clay loam)", "area_zona_ha": 2438.4428, "area_subzona_ha": 85.0, "puntos_zona": 29, "metodo_punto": "aleatorio_en_unidad", "Lat": 10.453604364254094, "Lon": -85.43336112946213}, "geometry": {"type": "Point", "coordinates": [-85.43336112946213, 10.453604364254094]}}, {"id": "30", "type": "Feature", "properties": {"ID_Punto": 31, "zona_id": 16, "subzona_id": 10, "texture_id": 8, "Textura": "Franco-arcillosa (Clay loam)", "area_zona_ha": 2438.4428, "area_subzona_ha": 85.0, "puntos_zona": 29, "metodo_punto": "aleatorio_en_unidad", "Lat": 10.456105661857222, "Lon": -85.43355616081536}, "geometry": {"type": "Point", "coordinates": [-85.43355616081536, 10.456105661857222]}}, {"id": "31", "type": "Feature", "properties": {"ID_Punto": 32, "zona_id": 16, "subzona_id": 11, "texture_id": 8, "Textura": "Franco-arcillosa (Clay loam)", "area_zona_ha": 2438.4428, "area_subzona_ha": 85.0, "puntos_zona": 29, "metodo_punto": "aleatorio_en_unidad", "Lat": 10.457799758961135, "Lon": -85.42188116368087}, "geometry": {"type": "Point", "coordinates": [-85.42188116368087, 10.457799758961135]}}, {"id": "32", "type": "Feature", "properties": {"ID_Punto": 33, "zona_id": 16, "subzona_id": 12, "texture_id": 8, "Textura": "Franco-arcillosa (Clay loam)", "area_zona_ha": 2438.4428, "area_subzona_ha": 85.0, "puntos_zona": 29, "metodo_punto": "aleatorio_en_unidad", "Lat": 10.459419555740096, "Lon": -85.43449944553922}, "geometry": {"type": "Point", "coordinates": [-85.43449944553922, 10.459419555740096]}}, {"id": "33", "type": "Feature", "properties": {"ID_Punto": 34, "zona_id": 16, "subzona_id": 13, "texture_id": 8, "Textura": "Franco-arcillosa (Clay loam)", "area_zona_ha": 2438.4428, "area_subzona_ha": 85.0, "puntos_zona": 29, "metodo_punto": "aleatorio_en_unidad", "Lat": 10.459797527923971, "Lon": -85.39554997258368}, "geometry": {"type": "Point", "coordinates": [-85.39554997258368, 10.459797527923971]}}, {"id": "34", "type": "Feature", "properties": {"ID_Punto": 35, "zona_id": 16, "subzona_id": 14, "texture_id": 8, "Textura": "Franco-arcillosa (Clay loam)", "area_zona_ha": 2438.4428, "area_subzona_ha": 85.0, "puntos_zona": 29, "metodo_punto": "aleatorio_en_unidad", "Lat": 10.462692745871243, "Lon": -85.42575653445792}, "geometry": {"type": "Point", "coordinates": [-85.42575653445792, 10.462692745871243]}}, {"id": "35", "type": "Feature", "properties": {"ID_Punto": 36, "zona_id": 16, "subzona_id": 15, "texture_id": 8, "Textura": "Franco-arcillosa (Clay loam)", "area_zona_ha": 2438.4428, "area_subzona_ha": 85.0, "puntos_zona": 29, "metodo_punto": "aleatorio_en_unidad", "Lat": 10.464333903523103, "Lon": -85.41310301839947}, "geometry": {"type": "Point", "coordinates": [-85.41310301839947, 10.464333903523103]}}, {"id": "36", "type": "Feature", "properties": {"ID_Punto": 37, "zona_id": 16, "subzona_id": 16, "texture_id": 8, "Textura": "Franco-arcillosa (Clay loam)", "area_zona_ha": 2438.4428, "area_subzona_ha": 85.0, "puntos_zona": 29, "metodo_punto": "aleatorio_en_unidad", "Lat": 10.464850047094778, "Lon": -85.43377922181448}, "geometry": {"type": "Point", "coordinates": [-85.43377922181448, 10.464850047094778]}}, {"id": "37", "type": "Feature", "properties": {"ID_Punto": 38, "zona_id": 16, "subzona_id": 17, "texture_id": 8, "Textura": "Franco-arcillosa (Clay loam)", "area_zona_ha": 2438.4428, "area_subzona_ha": 85.0, "puntos_zona": 29, "metodo_punto": "aleatorio_en_unidad", "Lat": 10.467549594607517, "Lon": -85.42075250166839}, "geometry": {"type": "Point", "coordinates": [-85.42075250166839, 10.467549594607517]}}, {"id": "38", "type": "Feature", "properties": {"ID_Punto": 39, "zona_id": 16, "subzona_id": 18, "texture_id": 8, "Textura": "Franco-arcillosa (Clay loam)", "area_zona_ha": 2438.4428, "area_subzona_ha": 85.0, "puntos_zona": 29, "metodo_punto": "aleatorio_en_unidad", "Lat": 10.469738245501683, "Lon": -85.42712719385158}, "geometry": {"type": "Point", "coordinates": [-85.42712719385158, 10.469738245501683]}}, {"id": "39", "type": "Feature", "properties": {"ID_Punto": 40, "zona_id": 16, "subzona_id": 19, "texture_id": 8, "Textura": "Franco-arcillosa (Clay loam)", "area_zona_ha": 2438.4428, "area_subzona_ha": 85.0, "puntos_zona": 29, "metodo_punto": "aleatorio_en_unidad", "Lat": 10.473665239615428, "Lon": -85.40151954926863}, "geometry": {"type": "Point", "coordinates": [-85.40151954926863, 10.473665239615428]}}, {"id": "40", "type": "Feature", "properties": {"ID_Punto": 41, "zona_id": 16, "subzona_id": 20, "texture_id": 8, "Textura": "Franco-arcillosa (Clay loam)", "area_zona_ha": 2438.4428, "area_subzona_ha": 85.0, "puntos_zona": 29, "metodo_punto": "aleatorio_en_unidad", "Lat": 10.47392036869263, "Lon": -85.42773769931684}, "geometry": {"type": "Point", "coordinates": [-85.42773769931684, 10.47392036869263]}}, {"id": "41", "type": "Feature", "properties": {"ID_Punto": 42, "zona_id": 16, "subzona_id": 21, "texture_id": 8, "Textura": "Franco-arcillosa (Clay loam)", "area_zona_ha": 2438.4428, "area_subzona_ha": 85.0, "puntos_zona": 29, "metodo_punto": "aleatorio_en_unidad", "Lat": 10.478003316265552, "Lon": -85.39448771503386}, "geometry": {"type": "Point", "coordinates": [-85.39448771503386, 10.478003316265552]}}, {"id": "42", "type": "Feature", "properties": {"ID_Punto": 43, "zona_id": 16, "subzona_id": 22, "texture_id": 8, "Textura": "Franco-arcillosa (Clay loam)", "area_zona_ha": 2438.4428, "area_subzona_ha": 85.0, "puntos_zona": 29, "metodo_punto": "aleatorio_en_unidad", "Lat": 10.47859132739304, "Lon": -85.4038149027925}, "geometry": {"type": "Point", "coordinates": [-85.4038149027925, 10.47859132739304]}}, {"id": "43", "type": "Feature", "properties": {"ID_Punto": 44, "zona_id": 16, "subzona_id": 23, "texture_id": 8, "Textura": "Franco-arcillosa (Clay loam)", "area_zona_ha": 2438.4428, "area_subzona_ha": 85.0, "puntos_zona": 29, "metodo_punto": "aleatorio_en_unidad", "Lat": 10.482266640856706, "Lon": -85.4184175859698}, "geometry": {"type": "Point", "coordinates": [-85.4184175859698, 10.482266640856706]}}, {"id": "44", "type": "Feature", "properties": {"ID_Punto": 45, "zona_id": 16, "subzona_id": 24, "texture_id": 8, "Textura": "Franco-arcillosa (Clay loam)", "area_zona_ha": 2438.4428, "area_subzona_ha": 85.0, "puntos_zona": 29, "metodo_punto": "aleatorio_en_unidad", "Lat": 10.48317716744726, "Lon": -85.43255099592308}, "geometry": {"type": "Point", "coordinates": [-85.43255099592308, 10.48317716744726]}}, {"id": "45", "type": "Feature", "properties": {"ID_Punto": 46, "zona_id": 16, "subzona_id": 25, "texture_id": 8, "Textura": "Franco-arcillosa (Clay loam)", "area_zona_ha": 2438.4428, "area_subzona_ha": 85.0, "puntos_zona": 29, "metodo_punto": "aleatorio_en_unidad", "Lat": 10.486063599469224, "Lon": -85.41647886322919}, "geometry": {"type": "Point", "coordinates": [-85.41647886322919, 10.486063599469224]}}, {"id": "46", "type": "Feature", "properties": {"ID_Punto": 47, "zona_id": 16, "subzona_id": 26, "texture_id": 8, "Textura": "Franco-arcillosa (Clay loam)", "area_zona_ha": 2438.4428, "area_subzona_ha": 85.0, "puntos_zona": 29, "metodo_punto": "aleatorio_en_unidad", "Lat": 10.486961945183342, "Lon": -85.44177974360495}, "geometry": {"type": "Point", "coordinates": [-85.44177974360495, 10.486961945183342]}}, {"id": "47", "type": "Feature", "properties": {"ID_Punto": 48, "zona_id": 16, "subzona_id": 27, "texture_id": 8, "Textura": "Franco-arcillosa (Clay loam)", "area_zona_ha": 2438.4428, "area_subzona_ha": 85.0, "puntos_zona": 29, "metodo_punto": "aleatorio_en_unidad", "Lat": 10.490485356202637, "Lon": -85.44068848062192}, "geometry": {"type": "Point", "coordinates": [-85.44068848062192, 10.490485356202637]}}, {"id": "48", "type": "Feature", "properties": {"ID_Punto": 49, "zona_id": 16, "subzona_id": 28, "texture_id": 8, "Textura": "Franco-arcillosa (Clay loam)", "area_zona_ha": 2438.4428, "area_subzona_ha": 85.0, "puntos_zona": 29, "metodo_punto": "aleatorio_en_unidad", "Lat": 10.490984623379296, "Lon": -85.4417855973544}, "geometry": {"type": "Point", "coordinates": [-85.4417855973544, 10.490984623379296]}}, {"id": "49", "type": "Feature", "properties": {"ID_Punto": 50, "zona_id": 16, "subzona_id": 29, "texture_id": 8, "Textura": "Franco-arcillosa (Clay loam)", "area_zona_ha": 2438.4428, "area_subzona_ha": 58.4428, "puntos_zona": 29, "metodo_punto": "aleatorio_en_unidad", "Lat": 10.494196633253429, "Lon": -85.43748803480392}, "geometry": {"type": "Point", "coordinates": [-85.43748803480392, 10.494196633253429]}}, {"id": "50", "type": "Feature", "properties": {"ID_Punto": 51, "zona_id": 17, "subzona_id": 1, "texture_id": 8, "Textura": "Franco-arcillosa (Clay loam)", "area_zona_ha": 6.2884, "area_subzona_ha": 6.2884, "puntos_zona": 1, "metodo_punto": "aleatorio_en_unidad", "Lat": 10.468259896454208, "Lon": -85.43301677954636}, "geometry": {"type": "Point", "coordinates": [-85.43301677954636, 10.468259896454208]}}, {"id": "51", "type": "Feature", "properties": {"ID_Punto": 52, "zona_id": 18, "subzona_id": 1, "texture_id": 8, "Textura": "Franco-arcillosa (Clay loam)", "area_zona_ha": 6.2884, "area_subzona_ha": 6.2884, "puntos_zona": 1, "metodo_punto": "aleatorio_en_unidad", "Lat": 10.476844734893993, "Lon": -85.43119185172029}, "geometry": {"type": "Point", "coordinates": [-85.43119185172029, 10.476844734893993]}}, {"id": "52", "type": "Feature", "properties": {"ID_Punto": 53, "zona_id": 19, "subzona_id": 1, "texture_id": 12, "Textura": "Arcillosa (Clay)", "area_zona_ha": 5.4683, "area_subzona_ha": 5.4683, "puntos_zona": 1, "metodo_punto": "aleatorio_en_unidad", "Lat": 10.435913102366971, "Lon": -85.42513667377987}, "geometry": {"type": "Point", "coordinates": [-85.42513667377987, 10.435913102366971]}}, {"id": "53", "type": "Feature", "properties": {"ID_Punto": 54, "zona_id": 20, "subzona_id": 1, "texture_id": 12, "Textura": "Arcillosa (Clay)", "area_zona_ha": 238.9584, "area_subzona_ha": 85.0, "puntos_zona": 3, "metodo_punto": "aleatorio_en_unidad", "Lat": 10.45127419765635, "Lon": -85.42871982436012}, "geometry": {"type": "Point", "coordinates": [-85.42871982436012, 10.45127419765635]}}, {"id": "54", "type": "Feature", "properties": {"ID_Punto": 55, "zona_id": 20, "subzona_id": 2, "texture_id": 12, "Textura": "Arcillosa (Clay)", "area_zona_ha": 238.9584, "area_subzona_ha": 85.0, "puntos_zona": 3, "metodo_punto": "aleatorio_en_unidad", "Lat": 10.448414579148503, "Lon": -85.420174224868}, "geometry": {"type": "Point", "coordinates": [-85.420174224868, 10.448414579148503]}}, {"id": "55", "type": "Feature", "properties": {"ID_Punto": 56, "zona_id": 20, "subzona_id": 3, "texture_id": 12, "Textura": "Arcillosa (Clay)", "area_zona_ha": 238.9584, "area_subzona_ha": 68.9584, "puntos_zona": 3, "metodo_punto": "aleatorio_en_unidad", "Lat": 10.443238989353322, "Lon": -85.4156381929055}, "geometry": {"type": "Point", "coordinates": [-85.4156381929055, 10.443238989353322]}}, {"id": "56", "type": "Feature", "properties": {"ID_Punto": 57, "zona_id": 21, "subzona_id": 1, "texture_id": 12, "Textura": "Arcillosa (Clay)", "area_zona_ha": 776.1547, "area_subzona_ha": 85.0, "puntos_zona": 10, "metodo_punto": "aleatorio_en_unidad", "Lat": 10.440572678884234, "Lon": -85.43238944798318}, "geometry": {"type": "Point", "coordinates": [-85.43238944798318, 10.440572678884234]}}, {"id": "57", "type": "Feature", "properties": {"ID_Punto": 58, "zona_id": 21, "subzona_id": 2, "texture_id": 12, "Textura": "Arcillosa (Clay)", "area_zona_ha": 776.1547, "area_subzona_ha": 85.0, "puntos_zona": 10, "metodo_punto": "aleatorio_en_unidad", "Lat": 10.453698345806412, "Lon": -85.44518789823191}, "geometry": {"type": "Point", "coordinates": [-85.44518789823191, 10.453698345806412]}}, {"id": "58", "type": "Feature", "properties": {"ID_Punto": 59, "zona_id": 21, "subzona_id": 3, "texture_id": 12, "Textura": "Arcillosa (Clay)", "area_zona_ha": 776.1547, "area_subzona_ha": 85.0, "puntos_zona": 10, "metodo_punto": "aleatorio_en_unidad", "Lat": 10.458897346806985, "Lon": -85.44911756882163}, "geometry": {"type": "Point", "coordinates": [-85.44911756882163, 10.458897346806985]}}, {"id": "59", "type": "Feature", "properties": {"ID_Punto": 60, "zona_id": 21, "subzona_id": 4, "texture_id": 12, "Textura": "Arcillosa (Clay)", "area_zona_ha": 776.1547, "area_subzona_ha": 85.0, "puntos_zona": 10, "metodo_punto": "aleatorio_en_unidad", "Lat": 10.46160381944836, "Lon": -85.45063055964552}, "geometry": {"type": "Point", "coordinates": [-85.45063055964552, 10.46160381944836]}}, {"id": "60", "type": "Feature", "properties": {"ID_Punto": 61, "zona_id": 21, "subzona_id": 5, "texture_id": 12, "Textura": "Arcillosa (Clay)", "area_zona_ha": 776.1547, "area_subzona_ha": 85.0, "puntos_zona": 10, "metodo_punto": "aleatorio_en_unidad", "Lat": 10.467989860279475, "Lon": -85.44840761663427}, "geometry": {"type": "Point", "coordinates": [-85.44840761663427, 10.467989860279475]}}, {"id": "61", "type": "Feature", "properties": {"ID_Punto": 62, "zona_id": 21, "subzona_id": 6, "texture_id": 12, "Textura": "Arcillosa (Clay)", "area_zona_ha": 776.1547, "area_subzona_ha": 85.0, "puntos_zona": 10, "metodo_punto": "aleatorio_en_unidad", "Lat": 10.471051979829474, "Lon": -85.43713432726834}, "geometry": {"type": "Point", "coordinates": [-85.43713432726834, 10.471051979829474]}}, {"id": "62", "type": "Feature", "properties": {"ID_Punto": 63, "zona_id": 21, "subzona_id": 7, "texture_id": 12, "Textura": "Arcillosa (Clay)", "area_zona_ha": 776.1547, "area_subzona_ha": 85.0, "puntos_zona": 10, "metodo_punto": "aleatorio_en_unidad", "Lat": 10.473646125487798, "Lon": -85.4462323103233}, "geometry": {"type": "Point", "coordinates": [-85.4462323103233, 10.473646125487798]}}, {"id": "63", "type": "Feature", "properties": {"ID_Punto": 64, "zona_id": 21, "subzona_id": 8, "texture_id": 12, "Textura": "Arcillosa (Clay)", "area_zona_ha": 776.1547, "area_subzona_ha": 85.0, "puntos_zona": 10, "metodo_punto": "aleatorio_en_unidad", "Lat": 10.47826805675664, "Lon": -85.4289194253013}, "geometry": {"type": "Point", "coordinates": [-85.4289194253013, 10.47826805675664]}}, {"id": "64", "type": "Feature", "properties": {"ID_Punto": 65, "zona_id": 21, "subzona_id": 9, "texture_id": 12, "Textura": "Arcillosa (Clay)", "area_zona_ha": 776.1547, "area_subzona_ha": 85.0, "puntos_zona": 10, "metodo_punto": "aleatorio_en_unidad", "Lat": 10.482138950398996, "Lon": -85.44092248749216}, "geometry": {"type": "Point", "coordinates": [-85.44092248749216, 10.482138950398996]}}, {"id": "65", "type": "Feature", "properties": {"ID_Punto": 66, "zona_id": 21, "subzona_id": 10, "texture_id": 12, "Textura": "Arcillosa (Clay)", "area_zona_ha": 776.1547, "area_subzona_ha": 11.1547, "puntos_zona": 10, "metodo_punto": "aleatorio_en_unidad", "Lat": 10.483127063422678, "Lon": -85.4400581680735}, "geometry": {"type": "Point", "coordinates": [-85.4400581680735, 10.483127063422678]}}, {"id": "66", "type": "Feature", "properties": {"ID_Punto": 67, "zona_id": 22, "subzona_id": 1, "texture_id": 12, "Textura": "Arcillosa (Clay)", "area_zona_ha": 6.2884, "area_subzona_ha": 6.2884, "puntos_zona": 1, "metodo_punto": "aleatorio_en_unidad", "Lat": 10.473078314375366, "Lon": -85.42472691314983}, "geometry": {"type": "Point", "coordinates": [-85.42472691314983, 10.473078314375366]}}, {"id": "67", "type": "Feature", "properties": {"ID_Punto": 68, "zona_id": 23, "subzona_id": 1, "texture_id": 12, "Textura": "Arcillosa (Clay)", "area_zona_ha": 18.8654, "area_subzona_ha": 18.8654, "puntos_zona": 1, "metodo_punto": "aleatorio_en_unidad", "Lat": 10.476649749394022, "Lon": -85.41548844618573}, "geometry": {"type": "Point", "coordinates": [-85.41548844618573, 10.476649749394022]}}, {"id": "68", "type": "Feature", "properties": {"ID_Punto": 69, "zona_id": 24, "subzona_id": 1, "texture_id": 12, "Textura": "Arcillosa (Clay)", "area_zona_ha": 0.023, "area_subzona_ha": 0.023, "puntos_zona": 1, "metodo_punto": "aleatorio_en_unidad", "Lat": 10.492717053812942, "Lon": -85.41783801526613}, "geometry": {"type": "Point", "coordinates": [-85.41783801526613, 10.492717053812942]}}, {"id": "69", "type": "Feature", "properties": {"ID_Punto": 70, "zona_id": 25, "subzona_id": 1, "texture_id": 12, "Textura": "Arcillosa (Clay)", "area_zona_ha": 201.3033, "area_subzona_ha": 85.0, "puntos_zona": 3, "metodo_punto": "aleatorio_en_unidad", "Lat": 10.488147099551814, "Lon": -85.45816890067101}, "geometry": {"type": "Point", "coordinates": [-85.45816890067101, 10.488147099551814]}}, {"id": "70", "type": "Feature", "properties": {"ID_Punto": 71, "zona_id": 25, "subzona_id": 2, "texture_id": 12, "Textura": "Arcillosa (Clay)", "area_zona_ha": 201.3033, "area_subzona_ha": 85.0, "puntos_zona": 3, "metodo_punto": "aleatorio_en_unidad", "Lat": 10.496703777482862, "Lon": -85.4677155711106}, "geometry": {"type": "Point", "coordinates": [-85.4677155711106, 10.496703777482862]}}, {"id": "71", "type": "Feature", "properties": {"ID_Punto": 72, "zona_id": 25, "subzona_id": 3, "texture_id": 12, "Textura": "Arcillosa (Clay)", "area_zona_ha": 201.3033, "area_subzona_ha": 31.3033, "puntos_zona": 3, "metodo_punto": "aleatorio_en_unidad", "Lat": 10.504831210900662, "Lon": -85.4633455706887}, "geometry": {"type": "Point", "coordinates": [-85.4633455706887, 10.504831210900662]}}, {"id": "72", "type": "Feature", "properties": {"ID_Punto": 73, "zona_id": 26, "subzona_id": 1, "texture_id": 12, "Textura": "Arcillosa (Clay)", "area_zona_ha": 2.8412, "area_subzona_ha": 2.8412, "puntos_zona": 1, "metodo_punto": "aleatorio_en_unidad", "Lat": 10.496623473635427, "Lon": -85.44088980622708}, "geometry": {"type": "Point", "coordinates": [-85.44088980622708, 10.496623473635427]}}, {"id": "73", "type": "Feature", "properties": {"ID_Punto": 74, "zona_id": 27, "subzona_id": 1, "texture_id": 12, "Textura": "Arcillosa (Clay)", "area_zona_ha": 21.5922, "area_subzona_ha": 21.5922, "puntos_zona": 1, "metodo_punto": "aleatorio_en_unidad", "Lat": 10.495012799383058, "Lon": -85.43755718656507}, "geometry": {"type": "Point", "coordinates": [-85.43755718656507, 10.495012799383058]}}, {"id": "74", "type": "Feature", "properties": {"ID_Punto": 75, "zona_id": 28, "subzona_id": 1, "texture_id": 12, "Textura": "Arcillosa (Clay)", "area_zona_ha": 3.4705, "area_subzona_ha": 3.4705, "puntos_zona": 1, "metodo_punto": "aleatorio_en_unidad", "Lat": 10.497296878791923, "Lon": -85.43968180265493}, "geometry": {"type": "Point", "coordinates": [-85.43968180265493, 10.497296878791923]}}, {"id": "75", "type": "Feature", "properties": {"ID_Punto": 76, "zona_id": 29, "subzona_id": 1, "texture_id": 12, "Textura": "Arcillosa (Clay)", "area_zona_ha": 237.1835, "area_subzona_ha": 85.0, "puntos_zona": 3, "metodo_punto": "aleatorio_en_unidad", "Lat": 10.402908882222148, "Lon": -85.39790282857295}, "geometry": {"type": "Point", "coordinates": [-85.39790282857295, 10.402908882222148]}}, {"id": "76", "type": "Feature", "properties": {"ID_Punto": 77, "zona_id": 29, "subzona_id": 2, "texture_id": 12, "Textura": "Arcillosa (Clay)", "area_zona_ha": 237.1835, "area_subzona_ha": 85.0, "puntos_zona": 3, "metodo_punto": "aleatorio_en_unidad", "Lat": 10.396252727166521, "Lon": -85.39336286953478}, "geometry": {"type": "Point", "coordinates": [-85.39336286953478, 10.396252727166521]}}, {"id": "77", "type": "Feature", "properties": {"ID_Punto": 78, "zona_id": 29, "subzona_id": 3, "texture_id": 12, "Textura": "Arcillosa (Clay)", "area_zona_ha": 237.1835, "area_subzona_ha": 67.1835, "puntos_zona": 3, "metodo_punto": "aleatorio_en_unidad", "Lat": 10.398997570112291, "Lon": -85.3856671336782}, "geometry": {"type": "Point", "coordinates": [-85.3856671336782, 10.398997570112291]}}, {"id": "78", "type": "Feature", "properties": {"ID_Punto": 79, "zona_id": 30, "subzona_id": 1, "texture_id": 12, "Textura": "Arcillosa (Clay)", "area_zona_ha": 1.5377, "area_subzona_ha": 1.5377, "puntos_zona": 1, "metodo_punto": "aleatorio_en_unidad", "Lat": 10.41692375209937, "Lon": -85.40083477784869}, "geometry": {"type": "Point", "coordinates": [-85.40083477784869, 10.41692375209937]}}, {"id": "79", "type": "Feature", "properties": {"ID_Punto": 80, "zona_id": 31, "subzona_id": 1, "texture_id": 12, "Textura": "Arcillosa (Clay)", "area_zona_ha": 41.7428, "area_subzona_ha": 41.7428, "puntos_zona": 1, "metodo_punto": "aleatorio_en_unidad", "Lat": 10.42743942358302, "Lon": -85.40013630027946}, "geometry": {"type": "Point", "coordinates": [-85.40013630027946, 10.42743942358302]}}, {"id": "80", "type": "Feature", "properties": {"ID_Punto": 81, "zona_id": 32, "subzona_id": 1, "texture_id": 12, "Textura": "Arcillosa (Clay)", "area_zona_ha": 11.1306, "area_subzona_ha": 11.1306, "puntos_zona": 1, "metodo_punto": "aleatorio_en_unidad", "Lat": 10.429519533070849, "Lon": -85.39439358883287}, "geometry": {"type": "Point", "coordinates": [-85.39439358883287, 10.429519533070849]}}, {"id": "81", "type": "Feature", "properties": {"ID_Punto": 82, "zona_id": 33, "subzona_id": 1, "texture_id": 12, "Textura": "Arcillosa (Clay)", "area_zona_ha": 22.3424, "area_subzona_ha": 22.3424, "puntos_zona": 1, "metodo_punto": "aleatorio_en_unidad", "Lat": 10.438170000839598, "Lon": -85.40054386942539}, "geometry": {"type": "Point", "coordinates": [-85.40054386942539, 10.438170000839598]}}, {"id": "82", "type": "Feature", "properties": {"ID_Punto": 83, "zona_id": 34, "subzona_id": 1, "texture_id": 12, "Textura": "Arcillosa (Clay)", "area_zona_ha": 6.2885, "area_subzona_ha": 6.2885, "puntos_zona": 1, "metodo_punto": "aleatorio_en_unidad", "Lat": 10.438515808641732, "Lon": -85.40466511620986}, "geometry": {"type": "Point", "coordinates": [-85.40466511620986, 10.438515808641732]}}, {"id": "83", "type": "Feature", "properties": {"ID_Punto": 84, "zona_id": 35, "subzona_id": 1, "texture_id": 12, "Textura": "Arcillosa (Clay)", "area_zona_ha": 12.5771, "area_subzona_ha": 12.5771, "puntos_zona": 1, "metodo_punto": "aleatorio_en_unidad", "Lat": 10.44323097711192, "Lon": -85.40017616996006}, "geometry": {"type": "Point", "coordinates": [-85.40017616996006, 10.44323097711192]}}, {"id": "84", "type": "Feature", "properties": {"ID_Punto": 85, "zona_id": 36, "subzona_id": 1, "texture_id": 12, "Textura": "Arcillosa (Clay)", "area_zona_ha": 94.3279, "area_subzona_ha": 85.0, "puntos_zona": 2, "metodo_punto": "aleatorio_en_unidad", "Lat": 10.471232692823282, "Lon": -85.41148280505377}, "geometry": {"type": "Point", "coordinates": [-85.41148280505377, 10.471232692823282]}}, {"id": "85", "type": "Feature", "properties": {"ID_Punto": 86, "zona_id": 36, "subzona_id": 2, "texture_id": 12, "Textura": "Arcillosa (Clay)", "area_zona_ha": 94.3279, "area_subzona_ha": 9.3279, "puntos_zona": 2, "metodo_punto": "aleatorio_en_unidad", "Lat": 10.466004548355578, "Lon": -85.40324701928124}, "geometry": {"type": "Point", "coordinates": [-85.40324701928124, 10.466004548355578]}}, {"id": "86", "type": "Feature", "properties": {"ID_Punto": 87, "zona_id": 37, "subzona_id": 1, "texture_id": 12, "Textura": "Arcillosa (Clay)", "area_zona_ha": 31.0917, "area_subzona_ha": 31.0917, "puntos_zona": 1, "metodo_punto": "aleatorio_en_unidad", "Lat": 10.470943047884605, "Lon": -85.39233132250405}, "geometry": {"type": "Point", "coordinates": [-85.39233132250405, 10.470943047884605]}}, {"id": "87", "type": "Feature", "properties": {"ID_Punto": 88, "zona_id": 38, "subzona_id": 1, "texture_id": 12, "Textura": "Arcillosa (Clay)", "area_zona_ha": 0.4295, "area_subzona_ha": 0.4295, "puntos_zona": 1, "metodo_punto": "aleatorio_en_unidad", "Lat": 10.488099453906933, "Lon": -85.3898434408536}, "geometry": {"type": "Point", "coordinates": [-85.3898434408536, 10.488099453906933]}}]}