{"type": "FeatureCollection", "features": [{"id": "0", "type": "Feature", "properties": {"zona_id": 1, "texture_id": 8, "Textura": "Franco-arcillosa (Clay loam)"}, "geometry": {"type": "Polygon", "coordinates": [[[-85.45372035856415, 10.460856801105283], [-85.4538265673551, 10.458590734192997], [-85.45446586732065, 10.458590734192997], [-85.45507513131561, 10.460856801105283], [-85.45372035856415, 10.460856801105283]]]}}, {"id": "1", "type": "Feature", "properties": {"zona_id": 2, "texture_id": 8, "Textura": "Franco-arcillosa (Clay loam)"}, "geometry": {"type": "Polygon", "coordinates": [[[-85.4489243770411, 10.465388934929852], [-85.4512161225537, 10.465388934929852], [-85.45110982410084, 10.46765500184214], [-85.45340158635776, 10.46765500184214], [-85.45350786806634, 10.465388934929852], [-85.45808993382195, 10.465388934929852], [-85.46732399999999, 10.477895], [-85.467796, 10.485069], [-85.46799794918532, 10.485783537140422], [-85.45713425024054, 10.485783537140422], [-85.45724069288438, 10.483517470228136], [-85.45358305153277, 10.483517470228136], [-85.45363399999998, 10.483422999999998], [-85.45607999999999, 10.482578999999998], [-85.45578, 10.480806999999999], [-85.453291, 10.481228999999999], [-85.451617, 10.480933], [-85.450759, 10.480553999999998], [-85.448742, 10.481609], [-85.44812097506767, 10.482500314390643], [-85.44860535850293, 10.472187135666708], [-85.44631356274596, 10.472187135666708], [-85.44641994332646, 10.469921068754424], [-85.4487117223315, 10.469921068754424], [-85.4489243770411, 10.465388934929852]]]}}, {"id": "2", "type": "Feature", "properties": {"zona_id": 3, "texture_id": 8, "Textura": "Franco-arcillosa (Clay loam)"}, "geometry": {"type": "Polygon", "coordinates": [[[-85.43464158225983, 10.47671926949128], [-85.4347480952809, 10.474453202578996], [-85.43703990779363, 10.474453202578996], [-85.43693341153218, 10.47671926949128], [-85.43464158225983, 10.47671926949128]]]}}, {"id": "3", "type": "Feature", "properties": {"zona_id": 4, "texture_id": 8, "Textura": "Franco-arcillosa (Clay loam)"}, "geometry": {"type": "Polygon", "coordinates": [[[-85.452132, 10.486208], [-85.45256854793531, 10.485398566994425], [-85.45247917968672, 10.487300210541813], [-85.452132, 10.486208]]]}}, {"id": "4", "type": "Feature", "properties": {"zona_id": 5, "texture_id": 8, "Textura": "Franco-arcillosa (Clay loam)"}, "geometry": {"type": "Polygon", "coordinates": [[[-85.46337107513983, 10.499379938614137], [-85.46326451273485, 10.501646005526421], [-85.46097249885402, 10.501646005526421], [-85.46101115166137, 10.50082423657626], [-85.465007, 10.497517], [-85.46376199999999, 10.493634999999998], [-85.4642122610802, 10.492581737877279], [-85.4682745099484, 10.492581737877279], [-85.46816805402308, 10.494847804789565], [-85.465876090536, 10.494847804789565], [-85.46566307221893, 10.499379938614137], [-85.46337107513983, 10.499379938614137]]]}}, {"id": "5", "type": "Feature", "properties": {"zona_id": 6, "texture_id": 8, "Textura": "Franco-arcillosa (Clay loam)"}, "geometry": {"type": "Polygon", "coordinates": [[[-85.44092489385383, 10.497113871701849], [-85.44053786526948, 10.497537477028077], [-85.44055781043252, 10.497113871701849], [-85.44092489385383, 10.497113871701849]]]}}, {"id": "6", "type": "Feature", "properties": {"zona_id": 7, "texture_id": 8, "Textura": "Franco-arcillosa (Clay loam)"}, "geometry": {"type": "Polygon", "coordinates": [[[-85.43594711907197, 10.497681410934485], [-85.43597384987017, 10.497113871701849], [-85.43826583015134, 10.497113871701849], [-85.4382022309449, 10.498464347782102], [-85.437498, 10.498360999999997], [-85.43594711907197, 10.497681410934485]]]}}, {"id": "7", "type": "Feature", "properties": {"zona_id": 8, "texture_id": 8, "Textura": "Franco-arcillosa (Clay loam)"}, "geometry": {"type": "Polygon", "coordinates": [[[-85.4678485404965, 10.501646005526421], [-85.46780701600849, 10.502529169126154], [-85.46541670639074, 10.504618990535578], [-85.46555652661567, 10.501646005526421], [-85.4678485404965, 10.501646005526421]]]}}, {"id": "8", "type": "Feature", "properties": {"zona_id": 9, "texture_id": 8, "Textura": "Franco-arcillosa (Clay loam)"}, "geometry": {"type": "Polygon", "coordinates": [[[-85.45974944599018, 10.503912072438705], [-85.460865895342, 10.503912072438705], [-85.46076719416978, 10.506009699111935], [-85.45974944599018, 10.503912072438705]]]}}, {"id": "9", "type": "Feature", "properties": {"zona_id": 10, "texture_id": 8, "Textura": "Franco-arcillosa (Clay loam)"}, "geometry": {"type": "Polygon", "coordinates": [[[-85.38566019721983, 10.39732636342754], [-85.38583399695025, 10.397406927561288], [-85.3856564266822, 10.397406927561288], [-85.38566019721983, 10.39732636342754]]]}}, {"id": "10", "type": "Feature", "properties": {"zona_id": 11, "texture_id": 8, "Textura": "Franco-arcillosa (Clay loam)"}, "geometry": {"type": "Polygon", "coordinates": [[[-85.39221203288716, 10.404205128298145], [-85.39231810017239, 10.40193906138586], [-85.3969006566261, 10.40193906138586], [-85.3967946226151, 10.404205128298145], [-85.39221203288716, 10.404205128298145]]]}}, {"id": "11", "type": "Feature", "properties": {"zona_id": 12, "texture_id": 8, "Textura": "Franco-arcillosa (Clay loam)"}, "geometry": {"type": "Polygon", "coordinates": [[[-85.38762944315923, 10.404205128298145], [-85.38773554371866, 10.40193906138586], [-85.39002682194553, 10.40193906138586], [-85.38992073802319, 10.404205128298145], [-85.38762944315923, 10.404205128298145]]]}}, {"id": "12", "type": "Feature", "properties": {"zona_id": 13, "texture_id": 8, "Textura": "Franco-arcillosa (Clay loam)"}, "geometry": {"type": "Polygon", "coordinates": [[[-85.39668856422118, 10.406471195210429], [-85.3967946226151, 10.404205128298145], [-85.40034971140646, 10.404205128298145], [-85.4005052066815, 10.406471195210429], [-85.39668856422118, 10.406471195210429]]]}}, {"id": "13", "type": "Feature", "properties": {"zona_id": 14, "texture_id": 8, "Textura": "Franco-arcillosa (Clay loam)"}, "geometry": {"type": "Polygon", "coordinates": [[[-85.40096051342015, 10.413108206075512], [-85.40097156903907, 10.413269395947285], [-85.40095296563454, 10.413269395947285], [-85.40096051342015, 10.413108206075512]]]}}, {"id": "14", "type": "Feature", "properties": {"zona_id": 15, "texture_id": 8, "Textura": "Franco-arcillosa (Clay loam)"}, "geometry": {"type": "Polygon", "coordinates": [[[-85.39129876518813, 10.429131864333286], [-85.389841, 10.425963999999999], [-85.389476, 10.424487], [-85.39061299999999, 10.423643], [-85.39147099999998, 10.422840999999998], [-85.39129981665305, 10.413269395947285], [-85.3917875198318, 10.413269395947285], [-85.3919998251441, 10.408737262122717], [-85.39429115329378, 10.408737262122717], [-85.3941850294828, 10.411003329035001], [-85.39647637428108, 10.411003329035001], [-85.39637024273317, 10.413269395947285], [-85.40095296563454, 10.413269395947285], [-85.40074069601134, 10.417801529771857], [-85.40128237439227, 10.417801529771857], [-85.40159309744148, 10.422333663596428], [-85.4005283288663, 10.422333663596428], [-85.40042210872092, 10.424599730508714], [-85.39583921918057, 10.424599730508714], [-85.39562663903065, 10.429131864333286], [-85.39129876518813, 10.429131864333286]]]}}, {"id": "15", "type": "Feature", "properties": {"zona_id": 16, "texture_id": 8, "Textura": "Franco-arcillosa (Clay loam)"}, "geometry": {"type": "Polygon", "coordinates": [[[-85.42920467474254, 10.494847804789565], [-85.42912715310746, 10.496493227190218], [-85.42792799999998, 10.4968], [-85.424023, 10.494775], [-85.422864, 10.493804], [-85.421104, 10.494478999999998], [-85.41904400000001, 10.494056999999998], [-85.41792899999999, 10.492918], [-85.41784136410315, 10.492800645315027], [-85.41785168261792, 10.492581737877279], [-85.41767789258968, 10.492581737877279], [-85.41591199999999, 10.490217000000001], [-85.41526799999997, 10.488656], [-85.41363663048261, 10.484756054653952], [-85.41369498097554, 10.483517470228136], [-85.41311851797064, 10.483517470228136], [-85.41307899999998, 10.483422999999998], [-85.41276443902521, 10.483517470228136], [-85.40911122182723, 10.483517470228136], [-85.40901155951826, 10.485632207412314], [-85.407844, 10.486439999999998], [-85.406363, 10.485913], [-85.406556, 10.484183], [-85.407672, 10.483381], [-85.40850899999998, 10.483549999999997], [-85.40947399999999, 10.48201], [-85.41056899999998, 10.481271], [-85.40962500000002, 10.480700999999998], [-85.40805799999998, 10.480637999999999], [-85.40393799999998, 10.479689], [-85.402801, 10.480617], [-85.400419, 10.481439999999997], [-85.39923899999998, 10.483654999999999], [-85.39818799999999, 10.486483], [-85.3905500969535, 10.488308176666333], [-85.3905623025826, 10.488049604052708], [-85.38957533437137, 10.488049604052708], [-85.38872499999998, 10.480005], [-85.38866, 10.475321], [-85.38908153024514, 10.474453202578996], [-85.39349547005143, 10.474453202578996], [-85.3939224847381, 10.465388934929852], [-85.39221236845654, 10.465388934929852], [-85.39522599999998, 10.455212], [-85.397329, 10.447826], [-85.399153, 10.441727999999998], [-85.40004563986572, 10.438196131982426], [-85.404367365534, 10.438196131982426], [-85.40458000728955, 10.433663998157856], [-85.39999698430026, 10.433663998157856], [-85.39996600387201, 10.434324220671192], [-85.396686, 10.432801], [-85.39547842202391, 10.432290568547527], [-85.39562663903065, 10.429131864333286], [-85.40479255152968, 10.429131864333286], [-85.4047959885638, 10.429058558509922], [-85.40623399999998, 10.430206], [-85.410268, 10.43029], [-85.412521, 10.429467], [-85.41441, 10.430311], [-85.41724199999999, 10.432294999999998], [-85.42016, 10.432527], [-85.42466599999999, 10.433433999999998], [-85.42540034809583, 10.433663998157856], [-85.42520361074136, 10.433663998157856], [-85.42509745226963, 10.435930065070142], [-85.42738898045494, 10.435930065070142], [-85.42746483830109, 10.434310596002192], [-85.42850700000001, 10.434637], [-85.43046, 10.437697], [-85.43163999999999, 10.439891999999999], [-85.43178418513827, 10.439940580153824], [-85.43144112980308, 10.44726039963157], [-85.44289918828397, 10.44726039963157], [-85.44279301743687, 10.449526466543855], [-85.44050138902702, 10.449526466543855], [-85.4397573949906, 10.465388934929852], [-85.43746564947797, 10.465388934929852], [-85.43767837431537, 10.460856801105283], [-85.43538666227983, 10.460856801105283], [-85.43517390396535, 10.465388934929852], [-85.4305904129401, 10.465388934929852], [-85.43037749029129, 10.469921068754424], [-85.43266926929631, 10.469921068754424], [-85.43256278820412, 10.472187135666708], [-85.43027099244716, 10.472187135666708], [-85.43016447025539, 10.474453202578996], [-85.4255808452299, 10.474453202578996], [-85.42536766075389, 10.478985336403568], [-85.42307581471812, 10.478985336403568], [-85.42318243589807, 10.47671926949128], [-85.4208906066257, 10.47671926949128], [-85.42057061969798, 10.483517470228136], [-85.42973813799459, 10.483517470228136], [-85.42984475758558, 10.481251403315852], [-85.43672034599474, 10.481251403315852], [-85.43682689093283, 10.478985336403568], [-85.43911873696862, 10.478985336403568], [-85.43890565629117, 10.483517470228136], [-85.44741226120681, 10.483517470228136], [-85.445008, 10.486968], [-85.44406400000001, 10.491693999999999], [-85.44200399999998, 10.493973], [-85.44191867556412, 10.494847804789565], [-85.440664492178, 10.494847804789565], [-85.44055781043252, 10.497113871701849], [-85.43826583015134, 10.497113871701849], [-85.4383725286909, 10.494847804789565], [-85.42920467474254, 10.494847804789565]], [[-85.40426100808577, 10.440462198894714], [-85.40655256966397, 10.440462198894714], [-85.40665891041385, 10.438196131982426], [-85.404367365534, 10.438196131982426], [-85.40426100808577, 10.440462198894714]], [[-85.42568740093321, 10.472187135666708], [-85.42339560517625, 10.472187135666708], [-85.42328903271716, 10.474453202578996], [-85.4255808452299, 10.474453202578996], [-85.42568740093321, 10.472187135666708]], [[-85.41620027661075, 10.478985336403568], [-85.41849212264654, 10.478985336403568], [-85.41870540769166, 10.474453202578996], [-85.41412178266617, 10.474453202578996], [-85.41401511880866, 10.47671926949128], [-85.416306948081, 10.47671926949128], [-85.41620027661075, 10.478985336403568]], [[-85.40516792123601, 10.469921068754424], [-85.40287614223098, 10.469921068754424], [-85.40266272010244, 10.474453202578996], [-85.41182997015342, 10.474453202578996], [-85.4122564488391, 10.465388934929852], [-85.40308946678861, 10.465388934929852], [-85.40298281670572, 10.46765500184214], [-85.40527457896265, 10.46765500184214], [-85.40516792123601, 10.469921068754424]], [[-85.42717662386764, 10.440462198894714], [-85.42946818544581, 10.440462198894714], [-85.42957435921228, 10.438196131982426], [-85.40895045529369, 10.438196131982426], [-85.40884413124215, 10.440462198894714], [-85.41342725439851, 10.440462198894714], [-85.41310823623361, 10.44726039963157], [-85.41998307132216, 10.44726039963157], [-85.41987673333851, 10.449526466543855], [-85.42216836174833, 10.449526466543855], [-85.42195564614457, 10.454058600368425], [-85.42653896984184, 10.454058600368425], [-85.42643260895663, 10.456324667280711], [-85.43101596610418, 10.456324667280711], [-85.4311222935391, 10.454058600368425], [-85.42883063169046, 10.454058600368425], [-85.42904324697783, 10.449526466543855], [-85.42675161856799, 10.449526466543855], [-85.42717662386764, 10.440462198894714]], [[-85.40196944650758, 10.440462198894714], [-85.39967788492937, 10.440462198894714], [-85.39946503007135, 10.444994332719283], [-85.40175662505773, 10.444994332719283], [-85.40196944650758, 10.440462198894714]]]}}, {"id": "16", "type": "Feature", "properties": {"zona_id": 17, "texture_id": 8, "Textura": "Franco-arcillosa (Clay loam)"}, "geometry": {"type": "Polygon", "coordinates": [[[-85.43277572604556, 10.46765500184214], [-85.43506748830247, 10.46765500184214], [-85.43496104830136, 10.469921068754424], [-85.43266926929631, 10.469921068754424], [-85.43277572604556, 10.46765500184214]]]}}, {"id": "17", "type": "Feature", "properties": {"zona_id": 18, "texture_id": 8, "Textura": "Franco-arcillosa (Clay loam)"}, "geometry": {"type": "Polygon", "coordinates": [[[-85.43005792371511, 10.47671926949128], [-85.43234975298748, 10.47671926949128], [-85.43224319886124, 10.478985336403568], [-85.42995135282547, 10.478985336403568], [-85.43005792371511, 10.47671926949128]]]}}, {"id": "18", "type": "Feature", "properties": {"zona_id": 19, "texture_id": 12, "Textura": "Arcillosa (Clay)"}, "geometry": {"type": "Polygon", "coordinates": [[[-85.42746483830109, 10.434310596002192], [-85.42738898045494, 10.435930065070142], [-85.42509745226963, 10.435930065070142], [-85.42520361074136, 10.433663998157856], [-85.42540034809583, 10.433663998157856], [-85.42746483830109, 10.434310596002192]]]}}, {"id": "19", "type": "Feature", "properties": {"zona_id": 20, "texture_id": 12, "Textura": "Arcillosa (Clay)"}, "geometry": {"type": "Polygon", "coordinates": [[[-85.41987673333851, 10.449526466543855], [-85.41998307132216, 10.44726039963157], [-85.41310823623361, 10.44726039963157], [-85.41342725439851, 10.440462198894714], [-85.40884413124215, 10.440462198894714], [-85.40895045529369, 10.438196131982426], [-85.42957435921228, 10.438196131982426], [-85.42946818544581, 10.440462198894714], [-85.42717662386764, 10.440462198894714], [-85.42675161856799, 10.449526466543855], [-85.42904324697783, 10.449526466543855], [-85.42883063169046, 10.454058600368425], [-85.4311222935391, 10.454058600368425], [-85.43101596610418, 10.456324667280711], [-85.42643260895663, 10.456324667280711], [-85.42653896984184, 10.454058600368425], [-85.42195564614457, 10.454058600368425], [-85.42216836174833, 10.449526466543855], [-85.41987673333851, 10.449526466543855]]]}}, {"id": "20", "type": "Feature", "properties": {"zona_id": 21, "texture_id": 12, "Textura": "Arcillosa (Clay)"}, "geometry": {"type": "Polygon", "coordinates": [[[-85.4489243770411, 10.465388934929852], [-85.4487117223315, 10.469921068754424], [-85.44641994332646, 10.469921068754424], [-85.44631356274596, 10.472187135666708], [-85.44860535850293, 10.472187135666708], [-85.44812097506767, 10.482500314390643], [-85.44741226120681, 10.483517470228136], [-85.43890565629117, 10.483517470228136], [-85.43911873696862, 10.478985336403568], [-85.43682689093283, 10.478985336403568], [-85.43672034599474, 10.481251403315852], [-85.42984475758558, 10.481251403315852], [-85.42973813799459, 10.483517470228136], [-85.42057061969798, 10.483517470228136], [-85.4208906066257, 10.47671926949128], [-85.42318243589807, 10.47671926949128], [-85.42307581471812, 10.478985336403568], [-85.42536766075389, 10.478985336403568], [-85.4255808452299, 10.474453202578996], [-85.43016447025539, 10.474453202578996], [-85.43027099244716, 10.472187135666708], [-85.43256278820412, 10.472187135666708], [-85.43266926929631, 10.469921068754424], [-85.43037749029129, 10.469921068754424], [-85.4305904129401, 10.465388934929852], [-85.43517390396535, 10.465388934929852], [-85.43538666227983, 10.460856801105283], [-85.43767837431537, 10.460856801105283], [-85.43746564947797, 10.465388934929852], [-85.4397573949906, 10.465388934929852], [-85.44050138902702, 10.449526466543855], [-85.44279301743687, 10.449526466543855], [-85.44289918828397, 10.44726039963157], [-85.43144112980308, 10.44726039963157], [-85.43178418513827, 10.439940580153824], [-85.433958, 10.440673], [-85.436318, 10.441897], [-85.43756200000001, 10.443900999999999], [-85.438936, 10.444598], [-85.44099599999997, 10.444977999999999], [-85.44286299999999, 10.445335999999998], [-85.444708, 10.447192999999999], [-85.448956, 10.448396], [-85.45017999999999, 10.449641], [-85.451016, 10.451856999999999], [-85.45427799999999, 10.457891999999998], [-85.45446586732065, 10.458590734192997], [-85.4538265673551, 10.458590734192997], [-85.45372035856415, 10.460856801105283], [-85.45507513131561, 10.460856801105283], [-85.45526499999998, 10.461563], [-85.45808993382195, 10.465388934929852], [-85.45350786806634, 10.465388934929852], [-85.45340158635776, 10.46765500184214], [-85.45110982410084, 10.46765500184214], [-85.4512161225537, 10.465388934929852], [-85.4489243770411, 10.465388934929852]], [[-85.43496104830136, 10.469921068754424], [-85.43506748830247, 10.46765500184214], [-85.43277572604556, 10.46765500184214], [-85.43266926929631, 10.469921068754424], [-85.43496104830136, 10.469921068754424]], [[-85.43234975298748, 10.47671926949128], [-85.43005792371511, 10.47671926949128], [-85.42995135282547, 10.478985336403568], [-85.43224319886124, 10.478985336403568], [-85.43234975298748, 10.47671926949128]], [[-85.43703990779363, 10.474453202578996], [-85.4347480952809, 10.474453202578996], [-85.43464158225983, 10.47671926949128], [-85.43693341153218, 10.47671926949128], [-85.43703990779363, 10.474453202578996]]]}}, {"id": "21", "type": "Feature", "properties": {"zona_id": 22, "texture_id": 12, "Textura": "Arcillosa (Clay)"}, "geometry": {"type": "Polygon", "coordinates": [[[-85.42339560517625, 10.472187135666708], [-85.42568740093321, 10.472187135666708], [-85.4255808452299, 10.474453202578996], [-85.42328903271716, 10.474453202578996], [-85.42339560517625, 10.472187135666708]]]}}, {"id": "22", "type": "Feature", "properties": {"zona_id": 23, "texture_id": 12, "Textura": "Arcillosa (Clay)"}, "geometry": {"type": "Polygon", "coordinates": [[[-85.41849212264654, 10.478985336403568], [-85.41620027661075, 10.478985336403568], [-85.416306948081, 10.47671926949128], [-85.41401511880866, 10.47671926949128], [-85.41412178266617, 10.474453202578996], [-85.41870540769166, 10.474453202578996], [-85.41849212264654, 10.478985336403568]]]}}, {"id": "23", "type": "Feature", "properties": {"zona_id": 24, "texture_id": 12, "Textura": "Arcillosa (Clay)"}, "geometry": {"type": "Polygon", "coordinates": [[[-85.41784136410315, 10.492800645315027], [-85.41767789258968, 10.492581737877279], [-85.41785168261792, 10.492581737877279], [-85.41784136410315, 10.492800645315027]]]}}, {"id": "24", "type": "Feature", "properties": {"zona_id": 25, "texture_id": 12, "Textura": "Arcillosa (Clay)"}, "geometry": {"type": "Polygon", "coordinates": [[[-85.46084399999998, 10.506168], [-85.46076719416978, 10.506009699111935], [-85.460865895342, 10.503912072438705], [-85.45974944599018, 10.503912072438705], [-85.459042, 10.502454], [-85.46101115166137, 10.50082423657626], [-85.46097249885402, 10.501646005526421], [-85.46326451273485, 10.501646005526421], [-85.46337107513983, 10.499379938614137], [-85.46566307221893, 10.499379938614137], [-85.465876090536, 10.494847804789565], [-85.46816805402308, 10.494847804789565], [-85.4682745099484, 10.492581737877279], [-85.4642122610802, 10.492581737877279], [-85.464664, 10.491525], [-85.463848, 10.490554999999999], [-85.46135899999999, 10.492326999999998], [-85.456252, 10.491904999999997], [-85.453677, 10.490217000000001], [-85.45277599999999, 10.488234], [-85.45247917968672, 10.487300210541813], [-85.45256854793531, 10.485398566994425], [-85.45358305153277, 10.483517470228136], [-85.45724069288438, 10.483517470228136], [-85.45713425024054, 10.485783537140422], [-85.46799794918532, 10.485783537140422], [-85.46972799999999, 10.491904999999997], [-85.470285, 10.498487999999998], [-85.469341, 10.501188], [-85.46780701600849, 10.502529169126154], [-85.4678485404965, 10.501646005526421], [-85.46555652661567, 10.501646005526421], [-85.46541670639074, 10.504618990535578], [-85.46509300000001, 10.504902], [-85.46084399999998, 10.506168]]]}}, {"id": "25", "type": "Feature", "properties": {"zona_id": 26, "texture_id": 12, "Textura": "Arcillosa (Clay)"}, "geometry": {"type": "Polygon", "coordinates": [[[-85.44092489385383, 10.497113871701849], [-85.44055781043252, 10.497113871701849], [-85.440664492178, 10.494847804789565], [-85.44191867556412, 10.494847804789565], [-85.44179000000001, 10.496166999999998], [-85.44092489385383, 10.497113871701849]]]}}, {"id": "26", "type": "Feature", "properties": {"zona_id": 27, "texture_id": 12, "Textura": "Arcillosa (Clay)"}, "geometry": {"type": "Polygon", "coordinates": [[[-85.43354999999998, 10.496631], [-85.430074, 10.496251], [-85.42912715310746, 10.496493227190218], [-85.42920467474254, 10.494847804789565], [-85.4383725286909, 10.494847804789565], [-85.43826583015134, 10.497113871701849], [-85.43597384987017, 10.497113871701849], [-85.43594711907197, 10.497681410934485], [-85.43354999999998, 10.496631]]]}}, {"id": "27", "type": "Feature", "properties": {"zona_id": 28, "texture_id": 12, "Textura": "Arcillosa (Clay)"}, "geometry": {"type": "Polygon", "coordinates": [[[-85.43826583015134, 10.497113871701849], [-85.44055781043252, 10.497113871701849], [-85.44053786526948, 10.497537477028077], [-85.439515, 10.498657], [-85.4382022309449, 10.498464347782102], [-85.43826583015134, 10.497113871701849]]]}}, {"id": "28", "type": "Feature", "properties": {"zona_id": 29, "texture_id": 12, "Textura": "Arcillosa (Clay)"}, "geometry": {"type": "Polygon", "coordinates": [[[-85.39429115329378, 10.408737262122717], [-85.3919998251441, 10.408737262122717], [-85.3917875198318, 10.413269395947285], [-85.39129981665305, 10.413269395947285], [-85.39123499999998, 10.409651], [-85.386558, 10.409818999999999], [-85.38621399999998, 10.405133999999999], [-85.38140799999998, 10.405641], [-85.380893, 10.401356], [-85.38306, 10.400743999999998], [-85.38348899999998, 10.400048000000002], [-85.383232, 10.397959], [-85.384337, 10.396713], [-85.38566019721983, 10.39732636342754], [-85.3856564266822, 10.397406927561288], [-85.38583399695025, 10.397406927561288], [-85.38675099999999, 10.397832], [-85.38884299999998, 10.397916], [-85.38940099999999, 10.397167000000001], [-85.39122499999999, 10.397695], [-85.391879, 10.397526], [-85.392512, 10.39627], [-85.39385300000001, 10.395963999999998], [-85.39484000000002, 10.395150999999998], [-85.398574, 10.401082], [-85.400076, 10.400217], [-85.40034971140646, 10.404205128298145], [-85.3967946226151, 10.404205128298145], [-85.39668856422118, 10.406471195210429], [-85.4005052066815, 10.406471195210429], [-85.40096051342015, 10.413108206075512], [-85.40095296563454, 10.413269395947285], [-85.39637024273317, 10.413269395947285], [-85.39647637428108, 10.411003329035001], [-85.3941850294828, 10.411003329035001], [-85.39429115329378, 10.408737262122717]], [[-85.3969006566261, 10.40193906138586], [-85.39231810017239, 10.40193906138586], [-85.39221203288716, 10.404205128298145], [-85.3967946226151, 10.404205128298145], [-85.3969006566261, 10.40193906138586]], [[-85.39002682194553, 10.40193906138586], [-85.38773554371866, 10.40193906138586], [-85.38762944315923, 10.404205128298145], [-85.38992073802319, 10.404205128298145], [-85.39002682194553, 10.40193906138586]]]}}, {"id": "29", "type": "Feature", "properties": {"zona_id": 30, "texture_id": 12, "Textura": "Arcillosa (Clay)"}, "geometry": {"type": "Polygon", "coordinates": [[[-85.40074069601134, 10.417801529771857], [-85.40095296563454, 10.413269395947285], [-85.40097156903907, 10.413269395947285], [-85.40128237439227, 10.417801529771857], [-85.40074069601134, 10.417801529771857]]]}}, {"id": "30", "type": "Feature", "properties": {"zona_id": 31, "texture_id": 12, "Textura": "Arcillosa (Clay)"}, "geometry": {"type": "Polygon", "coordinates": [[[-85.4005283288663, 10.422333663596428], [-85.40159309744148, 10.422333663596428], [-85.40166399999998, 10.423368], [-85.401664, 10.425753], [-85.403616, 10.428116999999999], [-85.4047959885638, 10.429058558509922], [-85.40479255152968, 10.429131864333286], [-85.39562663903065, 10.429131864333286], [-85.39583921918057, 10.424599730508714], [-85.40042210872092, 10.424599730508714], [-85.4005283288663, 10.422333663596428]]]}}, {"id": "31", "type": "Feature", "properties": {"zona_id": 32, "texture_id": 12, "Textura": "Arcillosa (Clay)"}, "geometry": {"type": "Polygon", "coordinates": [[[-85.39547842202391, 10.432290568547527], [-85.39209400000001, 10.430859999999997], [-85.39129876518813, 10.429131864333286], [-85.39562663903065, 10.429131864333286], [-85.39547842202391, 10.432290568547527]]]}}, {"id": "32", "type": "Feature", "properties": {"zona_id": 33, "texture_id": 12, "Textura": "Arcillosa (Clay)"}, "geometry": {"type": "Polygon", "coordinates": [[[-85.39996600387201, 10.434324220671192], [-85.39999698430026, 10.433663998157856], [-85.40458000728955, 10.433663998157856], [-85.404367365534, 10.438196131982426], [-85.40004563986572, 10.438196131982426], [-85.400913, 10.434764], [-85.39996600387201, 10.434324220671192]]]}}, {"id": "33", "type": "Feature", "properties": {"zona_id": 34, "texture_id": 12, "Textura": "Arcillosa (Clay)"}, "geometry": {"type": "Polygon", "coordinates": [[[-85.40426100808577, 10.440462198894714], [-85.404367365534, 10.438196131982426], [-85.40665891041385, 10.438196131982426], [-85.40655256966397, 10.440462198894714], [-85.40426100808577, 10.440462198894714]]]}}, {"id": "34", "type": "Feature", "properties": {"zona_id": 35, "texture_id": 12, "Textura": "Arcillosa (Clay)"}, "geometry": {"type": "Polygon", "coordinates": [[[-85.39946503007135, 10.444994332719283], [-85.39967788492937, 10.440462198894714], [-85.40196944650758, 10.440462198894714], [-85.40175662505773, 10.444994332719283], [-85.39946503007135, 10.444994332719283]]]}}, {"id": "35", "type": "Feature", "properties": {"zona_id": 36, "texture_id": 12, "Textura": "Arcillosa (Clay)"}, "geometry": {"type": "Polygon", "coordinates": [[[-85.40298281670572, 10.46765500184214], [-85.40308946678861, 10.465388934929852], [-85.4122564488391, 10.465388934929852], [-85.41182997015342, 10.474453202578996], [-85.40266272010244, 10.474453202578996], [-85.40287614223098, 10.469921068754424], [-85.40516792123601, 10.469921068754424], [-85.40527457896265, 10.46765500184214], [-85.40298281670572, 10.46765500184214]]]}}, {"id": "36", "type": "Feature", "properties": {"zona_id": 37, "texture_id": 12, "Textura": "Arcillosa (Clay)"}, "geometry": {"type": "Polygon", "coordinates": [[[-85.39221236845654, 10.465388934929852], [-85.3939224847381, 10.465388934929852], [-85.39349547005143, 10.474453202578996], [-85.38908153024514, 10.474453202578996], [-85.39072, 10.47108], [-85.392008, 10.466079], [-85.39221236845654, 10.465388934929852]]]}}, {"id": "37", "type": "Feature", "properties": {"zona_id": 38, "texture_id": 12, "Textura": "Arcillosa (Clay)"}, "geometry": {"type": "Polygon", "coordinates": [[[-85.3905500969535, 10.488308176666333], [-85.38962599999999, 10.488528999999998], [-85.38957533437137, 10.488049604052708], [-85.3905623025826, 10.488049604052708], [-85.3905500969535, 10.488308176666333]]]}}]}